STARLINK-30986          
1 58492U 23186V   24257.48837526  .00000238  00000+0  32657-4 0  9990
2 58492  43.0008 133.3354 0001580 260.0600 100.0064 15.02544020 44243
STARLINK-30985          
1 58493U 23186W   24257.35208345  .00006143  00000+0  46911-3 0  9996
2 58493  43.0022 134.0327 0001401 266.5967  93.4715 15.02559677 44238
STARLINK-30981          
1 58494U 23186X   24257.34876045  .00002036  00000+0  16572-3 0  9991
2 58494  43.0024 134.0061 0001619 273.0538  87.0119 15.02543591 44228
STARLINK-31002          
1 58495U 23186Y   24256.74713014  .00004711  00000+0  36352-3 0  9991
2 58495  43.0030 137.2323 0001553 261.9749  98.0917 15.02545769 44349
STARLINK-31026          
1 58508U 23191A   24257.46236793  .00000802  00000+0  74395-4 0  9993
2 58508  43.0037 173.3746 0001073 275.2543  84.8176 15.02536567 43893
STARLINK-31020          
1 58509U 23191B   24257.45914303  .00009797  00000+0  73869-3 0  9999
2 58509  42.9955 174.2057 0001615 265.2546  94.8112 15.02568245 43765
STARLINK-30989          
1 58510U 23191C   24257.47434218  .00000237  00000+0  32575-4 0  9995
2 58510  42.9989 172.6104 0000200 324.1581  35.9248 15.02530535 43916
STARLINK-30968          
1 58511U 23191D   24257.47100678  .00000960  00000+0  86130-4 0  9995
2 58511  42.9997 172.5883 0000803 280.5384  79.5367 15.02533737 43850
STARLINK-30982          
1 58512U 23191E   24257.46767652  .00001212  00000+0  10479-3 0  9999
2 58512  43.0026 172.5601 0001186 264.0160  96.0548 15.02532812 43799
STARLINK-30998          
1 58513U 23191F   24257.46434545 -.00000839  00000+0 -47039-4 0  9991
2 58513  43.0041 172.5251 0000869 278.7910  81.2834 15.02540177 43900
STARLINK-30983          
1 58514U 23191G   24257.48754259  .00000374  00000+0  42734-4 0  9990
2 58514  42.9981 171.8593 0000300 289.4826  70.5984 15.02534659 43475
STARLINK-31017          
1 58515U 23191H   24256.84857748  .00005651  00000+0  14240-3 0  9990
2 58515  43.0034  78.9219 0001761 279.0508  81.0149 15.40712133 44909
STARLINK-31028          
1 58516U 23191J   24257.45768757 -.00000055  00000+0  10962-4 0  9992
2 58516  43.0006 172.4835 0001124 278.3370  81.7345 15.02533662 43859
STARLINK-31011          
1 58517U 23191K   24257.46101671  .00004478  00000+0  34623-3 0  9991
2 58517  43.0021 172.5043 0001070   7.5266 352.5592 15.02550814 43902
STARLINK-31021          
1 58518U 23191L   24257.47757578 -.00003688  00000+0 -25832-3 0  9992
2 58518  43.0024 171.7590 0000927 294.5854  65.4892 15.02497757 43915
STARLINK-31010          
1 58519U 23191M   24257.48087640 -.00000159  00000+0  32739-5 0  9995
2 58519  42.9921 171.7506 0000503 217.7654 142.3153 15.02533422 43850
STARLINK-31003          
1 58520U 23191N   24257.18842956  .00008114  00000+0  61445-3 0  9995
2 58520  43.0012 173.8997 0000913 311.4286  48.6478 15.02572413 43862
STARLINK-31015          
1 58521U 23191P   24256.78624967  .00000807  00000+0  74816-4 0  9999
2 58521  43.0022 176.0464 0000766 305.4582  54.6189 15.02537715 43745
STARLINK-31023          
1 58522U 23191Q   24256.11814514 -.00004029  00000+0 -28320-3 0  9996
2 58522  43.0008 179.6329 0001254 274.7655  85.3044 15.02558571 43677
STARLINK-30932          
1 58523U 23191R   24257.17844177  .00003104  00000+0  24465-3 0  9999
2 58523  43.0028 173.8238 0001071 274.3666  85.7054 15.02554876 43792
STARLINK-30992          
1 58524U 23191S   24257.10862932  .00003765  00000+0  29341-3 0  9993
2 58524  43.0054 174.1591 0001050 277.5854  82.4869 15.02560552 43683
STARLINK-30948          
1 58525U 23191T   24257.17178136  .00003594  00000+0  28079-3 0  9994
2 58525  43.0019 173.7728 0000680 279.8843  80.1922 15.02557454 43865
STARLINK-31013          
1 58526U 23191U   24257.50086534  .00000211  00000+0  30674-4 0  9990
2 58526  42.9993 171.9416 0000564  28.7952 331.2921 15.02534962 43860
STARLINK-31001          
1 58527U 23191V   24257.48419685  .00000859  00000+0  78628-4 0  9994
2 58527  43.0011 171.7314 0000828 261.5251  98.5498 15.02533783 43740
STARLINK-31004          
1 58528U 23191W   24256.96570092  .00014495  00000+0  10849-2 0  9997
2 58528  43.0000 174.8055 0001272 285.4054  74.6648 15.02568903 43828
STARLINK-30988          
1 58529U 23191X   24257.49419605  .00000541  00000+0  55106-4 0  9993
2 58529  43.0008 171.8957 0000552 327.4839  32.5969 15.02537425 43377
STARLINK-31009          
1 58530U 23191Y   24257.49087127  .00000592  00000+0  58916-4 0  9993
2 58530  43.0006 171.8709 0000698 264.8317  95.2446 15.02535245 43912
STARLINK-31012          
1 58531U 23192A   24256.73302149  .00010624  00000+0  32677-3 0  9997
2 58531  53.1613  64.9085 0000949  85.3556 274.7555 15.34239606 42852
STARLINK-31035          
1 58532U 23192B   24257.25001157 -.00075617  00000+0 -25640-2 0  9997
2 58532  53.1599  61.9933 0000418 348.9556 226.9692 15.30237211 44134
STARLINK-31036          
1 58533U 23192C   24256.74112130  .00005576  00000+0  20023-3 0  9991
2 58533  53.1612  64.9809 0000647  32.8613 327.2428 15.30199801 42854
STARLINK-30936          
1 58534U 23192D   24257.42684023 -.00001392  00000+0 -34823-4 0  9991
2 58534  53.1597  61.4290 0001965 140.2892 219.8253 15.30219132 44157
STARLINK-31032          
1 58535U 23192E   24257.44459405  .00005785  00000+0  18323-3 0  9992
2 58535  53.1617  61.5317 0001150  77.4578 282.6553 15.34223563 44169
STARLINK-31037          
1 58536U 23192F   24257.16249811  .00060774  00000+0  21424-2 0  9994
2 58536  53.1588  62.6290 0000902  76.9757 283.1344 15.28722763 44125
STARLINK-31041          
1 58537U 23192G   24257.17470189  .00004317  00000+0  13955-3 0  9992
2 58537  53.1603  62.6887 0000936  99.9833 260.1275 15.34233753 44124
STARLINK-31014          
1 58538U 23192H   24257.44160446  .00004456  00000+0  16246-3 0  9995
2 58538  53.1608  61.5095 0000616 103.2024 256.9045 15.30205503 44109
STARLINK-31055          
1 58539U 23192J   24257.44476424 -.00014035  00000+0 -46222-3 0  9995
2 58539  53.1607  61.5281 0001275  87.6659 272.4488 15.30228025 44150
STARLINK-31019          
1 58540U 23192K   24257.58334491  .00028002  00000+0  95576-3 0  9992
2 58540  53.1588  60.7866 0000461 108.7365 347.4494 15.30140375 44178
STARLINK-31045          
1 58541U 23192L   24257.23472795  .00002343  00000+0  18293-3 0  9996
2 58541  53.1609  88.0125 0001342  98.7312 261.3830 15.04938473 43759
STARLINK-31030          
1 58542U 23192M   24257.18669346  .00004505  00000+0  16414-3 0  9996
2 58542  53.1613  62.7624 0001439  76.6713 283.4448 15.30202403 44112
STARLINK-31049          
1 58543U 23192N   24257.18985274  .00003031  00000+0  11439-3 0  9993
2 58543  53.1609  62.7816 0001130 104.4923 255.6203 15.30204862 44113
STARLINK-31048          
1 58544U 23192P   24257.47736094  .00006559  00000+0  23317-3 0  9996
2 58544  53.1606  60.9795 0000887  88.6518 271.4584 15.30226471 44172
STARLINK-31057          
1 58545U 23192Q   24257.45427120  .00005572  00000+0  20000-3 0  9992
2 58545  53.1616  61.5887 0000813  79.3777 280.7315 15.30218929 44169
STARLINK-31050          
1 58546U 23192R   24257.19618336  .00007472  00000+0  26402-3 0  9998
2 58546  53.1617  62.8215 0001298  89.9362 270.1787 15.30216384 44052
STARLINK-31063          
1 58547U 23192S   24257.17407529  .00004078  00000+0  13242-3 0  9994
2 58547  53.1591  60.5102 0000955  81.0289 279.0821 15.34235541 43937
STARLINK-31016          
1 58548U 23192T   24256.76208499  .00003269  00000+0  12244-3 0  9996
2 58548  53.1628  64.3401 0001233  94.3726 265.7415 15.30201998 42863
STARLINK-31053          
1 58549U 23192U   24257.19935239  .00004284  00000+0  15669-3 0  9996
2 58549  53.1613  62.8417 0001278  70.1486 289.9653 15.30199322 44111
STARLINK-31056          
1 58550U 23192V   24257.48369963  .00009533  00000+0  33320-3 0  9991
2 58550  53.1591  61.0621 0000949  90.8899 269.2210 15.30236964 44177
STARLINK-30999          
1 58551U 23192W   24256.74896769  .00002492  00000+0  85298-4 0  9998
2 58551  53.1589  54.9529 0001066 122.1553 237.9553 15.34228715 42999
STARLINK-31046          
1 58552U 23192X   24256.88015047  .00006670  00000+0  23693-3 0  9998
2 58552  53.1613  64.3958 0000749  75.9290 284.1794 15.30224427 42879
STARLINK-31044          
1 58589U 23200A   24257.33102321  .00003774  00000+0  29423-3 0  9990
2 58589  43.0026 236.9030 0001307 266.2416  93.8277 15.02548758 42033
STARLINK-31062          
1 58590U 23200B   24256.35197825  .00002054  00000+0  16703-3 0  9993
2 58590  43.0042 244.1855 0001093 266.7071  93.3646 15.02542468 41848
STARLINK-31043          
1 58591U 23200C   24257.32250543  .00001656  00000+0  13763-3 0  9999
2 58591  43.0051 238.5714 0001260 268.4608  91.6090 15.02542760 42021
STARLINK-31096          
1 58592U 23200D   24257.24381871  .00004921  00000+0  37910-3 0  9998
2 58592  43.0055 238.8445 0001214 275.5263  84.5441 15.02539009 42017
STARLINK-31094          
1 58593U 23200E   24257.38762718  .00003376  00000+0  26473-3 0  9992
2 58593  43.0038 237.3448 0000990 260.0138 100.0592 15.02550661 42047
STARLINK-31075          
1 58594U 23200F   24257.38211787 -.00034453  00000+0 -25385-2 0  9990
2 58594  43.0034 237.3024 0001431 279.6732  80.3949 15.02674365 42045
STARLINK-30857          
1 58595U 23200G   24257.24468385  .00001778  00000+0  14665-3 0  9996
2 58595  43.0075 237.9909 0001200 258.8349 101.2358 15.02541941 42024
STARLINK-31059          
1 58596U 23200H   24257.50506521 -.00006184  00000+0 -22692-3 0  9998
2 58596  43.0036 191.2862 0001233  22.9617 337.1289 15.25887354 42597
STARLINK-31087          
1 58597U 23200J   24257.23802382  .00001785  00000+0  14712-3 0  9997
2 58597  43.0031 237.9386 0001135 272.0201  88.0511 15.02545994 41898
STARLINK-31079          
1 58598U 23200K   24257.23469068  .00002424  00000+0  19435-3 0  9996
2 58598  43.0026 237.9111 0001284 261.3955  98.6742 15.02550657 42022
